     2              NAVIGATION DATA                         RINEX VERSION / TYPE
CCRINEXN V1.6.0 UX  CDDIS               19-JUN-24 02:42     PGM / RUN BY / DATE 
IGS BROADCAST EPHEMERIS FILE                                COMMENT             
    0.1956D-07  0.2235D-07 -0.1192D-06 -0.1192D-06          ION ALPHA           
    0.1270D+06  0.1638D+06 -0.1966D+06 -0.2621D+06          ION BETA            
    0.000000000000D+00 0.000000000000D+00   503808     2319 DELTA-UTC: A0,A1,T,W
    18                                                      LEAP SECONDS        
                                                            END OF HEADER       
 2 24  6 19  0  0  0.0-0.415149144828D-03 0.704858393874D-11 0.000000000000D+00
    0.960000000000D+02-0.697500000000D+02 0.440696928225D-08 0.242877722043D+01
   -0.375136733055D-05 0.159772610059D-01 0.198744237423D-05 0.515370083237D+04
    0.259200000000D+06 0.244006514549D-06 0.156132093325D+01-0.242143869400D-07
    0.967071028356D+00 0.343781250000D+03-0.117352398324D+01-0.800997650482D-08
   -0.181436128972D-09 0.100000000000D+01 0.231900000000D+04 0.000000000000D+00
    0.200000000000D+01 0.000000000000D+00-0.176951289177D-07 0.960000000000D+02
    0.252018000000D+06 0.400000000000D+01 0.000000000000D+00 0.000000000000D+00
 4 24  6 19  0  0  0.0 0.386110041290D-03 0.807176547823D-11 0.000000000000D+00
    0.107000000000D+03 0.896875000000D+01 0.482662961993D-08 0.187900936442D+01
    0.592321157455D-06 0.285947241355D-02 0.688992440701D-05 0.515373117065D+04
    0.259200000000D+06-0.372529029846D-08-0.250868942773D+01 0.149011611938D-06
    0.965108790004D+00 0.251468750000D+03-0.295746785747D+01-0.806962184643D-08
    0.375015620906D-09 0.100000000000D+01 0.231900000000D+04 0.000000000000D+00
    0.200000000000D+01 0.000000000000D+00-0.465661287308D-08 0.107000000000D+03
    0.252018000000D+06 0.400000000000D+01 0.000000000000D+00 0.000000000000D+00
 5 24  6 19  0  0  0.0-0.176801346242D-03-0.136424205266D-11 0.000000000000D+00
    0.137000000000D+03-0.904687500000D+02 0.409445626482D-08 0.257272261455D+01
   -0.474974513054D-05 0.590827199630D-02 0.106208026409D-04 0.515363606453D+04
    0.259200000000D+06-0.372529029846D-08 0.264499975145D+01-0.726431608200D-07
    0.971970067438D+00 0.181875000000D+03 0.126740407969D+01-0.758960185167D-08
    0.246438836595D-09 0.100000000000D+01 0.231900000000D+04 0.000000000000D+00
    0.280000000000D+01 0.000000000000D+00-0.107102096081D-07 0.137000000000D+03
    0.252042000000D+06 0.400000000000D+01 0.000000000000D+00 0.000000000000D+00
 6 24  6 19  0  0  0.0 0.210802070796D-03-0.213731254917D-10 0.000000000000D+00
    0.690000000000D+02-0.815937500000D+02 0.394373570099D-08 0.239130749967D+00
   -0.416487455368D-05 0.293773540761D-02 0.346451997757D-05 0.515363927078D+04
    0.259200000000D+06-0.521540641785D-07 0.166017437917D+01-0.353902578354D-07
    0.989468694748D+00 0.322250000000D+03-0.693431990969D+00-0.802676291832D-08
   -0.632169189527D-10 0.100000000000D+01 0.231900000000D+04 0.000000000000D+00
    0.280000000000D+01 0.000000000000D+00 0.372529029846D-08 0.690000000000D+02
    0.252018000000D+06 0.400000000000D+01 0.000000000000D+00 0.000000000000D+00
 7 24  6 19  0  0  0.0-0.894190743566D-04 0.989075488178D-11 0.000000000000D+00
    0.270000000000D+02-0.953125000000D+01 0.510806991447D-08-0.638776787823D+00
   -0.430271029472D-06 0.186223696219D-01 0.674836337566D-05 0.515362653160D+04
    0.259200000000D+06-0.117346644402D-06-0.149577955249D+01 0.322237610817D-06
    0.949815137190D+00 0.243375000000D+03-0.211499729529D+01-0.849249660371D-08
   -0.536450916762D-09 0.100000000000D+01 0.231900000000D+04 0.000000000000D+00
    0.200000000000D+01 0.000000000000D+00-0.111758708954D-07 0.270000000000D+02
    0.252018000000D+06 0.400000000000D+01 0.000000000000D+00 0.000000000000D+00
 8 24  6 19  0  0  0.0 0.236226245761D-03 0.178488335223D-10 0.000000000000D+00
    0.179000000000D+03 0.102281250000D+03 0.464840791056D-08 0.221216616617D+01
    0.521354377270D-05 0.947535771411D-02 0.347569584847D-05 0.515364784050D+04
    0.259200000000D+06-0.203028321266D-06 0.563402584596D+00 0.689178705216D-07
    0.953072441327D+00 0.307656250000D+03 0.365234285474D+00-0.829998858498D-08
    0.205365697163D-09 0.100000000000D+01 0.231900000000D+04 0.000000000000D+00
    0.200000000000D+01 0.000000000000D+00 0.465661287308D-08 0.179000000000D+03
    0.252018000000D+06 0.400000000000D+01 0.000000000000D+00 0.000000000000D+00
 9 24  6 19  0  0  0.0 0.240055378526D-03 0.146656020661D-10 0.000000000000D+00
    0.840000000000D+02 0.900000000000D+01 0.492341936589D-08 0.268535765140D+01
    0.618398189545D-06 0.277426315006D-02 0.694766640663D-05 0.515364239502D+04
    0.259200000000D+06 0.137835741043D-06-0.256837764253D+01-0.372529029846D-08
    0.958767944213D+00 0.243375000000D+03 0.197657297595D+01-0.808819404861D-08
    0.375372778640D-09 0.100000000000D+01 0.231900000000D+04 0.000000000000D+00
    0.200000000000D+01 0.000000000000D+00 0.931322574616D-09 0.840000000000D+02
    0.252018000000D+06 0.400000000000D+01 0.000000000000D+00 0.000000000000D+00
10 24  6 19  0  0  0.0-0.459272414446D-04-0.841282599140D-11 0.000000000000D+00
    0.170000000000D+03-0.855000000000D+02 0.378087177420D-08-0.209392464208D+01
   -0.453554093838D-05 0.937652820721D-02 0.102501362562D-04 0.515369110298D+04
    0.259200000000D+06 0.173225998878D-06 0.269405744089D+01-0.149011611938D-07
    0.984704903906D+00 0.191312500000D+03-0.237427546277D+01-0.744852454666D-08
    0.380015829185D-09 0.100000000000D+01 0.231900000000D+04 0.000000000000D+00
    0.200000000000D+01 0.000000000000D+00 0.232830643654D-08 0.170000000000D+03
    0.252018000000D+06 0.400000000000D+01 0.000000000000D+00 0.000000000000D+00
11 24  6 19  0  0  0.0-0.688323285431D-03-0.795807864051D-11 0.000000000000D+00
    0.300000000000D+02-0.961875000000D+02 0.444197074020D-08 0.152699393942D+01
   -0.510737299919D-05 0.136120640673D-02 0.326707959175D-05 0.515372828293D+04
    0.259200000000D+06-0.204890966415D-07 0.169275366573D+01 0.782310962677D-07
    0.966023200115D+00 0.313593750000D+03-0.260371894037D+01-0.827463038586D-08
   -0.101432796512D-09 0.100000000000D+01 0.231900000000D+04 0.000000000000D+00
    0.200000000000D+01 0.000000000000D+00-0.884756445885D-08 0.542000000000D+03
    0.252018000000D+06 0.400000000000D+01 0.000000000000D+00 0.000000000000D+00
12 24  6 19  0  0  0.0-0.515254680067D-03-0.318323145621D-11 0.000000000000D+00
    0.540000000000D+02 0.990000000000D+02 0.413124351145D-08-0.137107479196D+01
    0.512041151524D-05 0.871856370941D-02 0.102091580629D-04 0.515364609337D+04
    0.259200000000D+06 0.372529029846D-08-0.380037015164D+00 0.227242708206D-06
    0.962551400004D+00 0.184468750000D+03 0.145279088989D+01-0.783461205733D-08
   -0.275725770799D-09 0.100000000000D+01 0.231900000000D+04 0.000000000000D+00
    0.200000000000D+01 0.000000000000D+00-0.125728547573D-07 0.540000000000D+02
    0.258404000000D+06 0.400000000000D+01 0.000000000000D+00 0.000000000000D+00
14 24  6 19  0  0  0.0 0.428716186434D-03 0.909494701773D-11 0.000000000000D+00
    0.168000000000D+03 0.782812500000D+02 0.443232748137D-08-0.141330905258D+01
    0.400841236115D-05 0.460215879139D-02 0.980310142040D-05 0.515370242119D+04
    0.259200000000D+06-0.204890966415D-07-0.424803895656D+00-0.180676579475D-06
    0.945849654892D+00 0.186312500000D+03-0.288875391210D+01-0.781746848608D-08
   -0.267511142913D-09 0.100000000000D+01 0.231900000000D+04 0.000000000000D+00
    0.200000000000D+01 0.000000000000D+00-0.791624188423D-08 0.680000000000D+03
    0.252686000000D+06 0.400000000000D+01 0.000000000000D+00 0.000000000000D+00
15 24  6 19  0  0  0.0 0.171667430550D-03 0.420641299570D-11 0.000000000000D+00
    0.630000000000D+02 0.212500000000D+01 0.548772858592D-08 0.125749346802D+01
    0.186264514923D-08 0.157137932256D-01 0.809133052826D-05 0.515366228294D+04
    0.259200000000D+06-0.348314642906D-06-0.269683287005D+01-0.139698386192D-06
    0.935761588329D+00 0.216750000000D+03 0.131833514984D+01-0.847678166341D-08
    0.462876423518D-09 0.100000000000D+01 0.231900000000D+04 0.000000000000D+00
    0.200000000000D+01 0.000000000000D+00-0.102445483208D-07 0.630000000000D+02
    0.257328000000D+06 0.400000000000D+01 0.000000000000D+00 0.000000000000D+00
16 24  6 19  0  0  0.0-0.260473228991D-03 0.105728759081D-10 0.000000000000D+00
    0.200000000000D+02 0.834687500000D+02 0.403945397376D-08 0.312891993555D+01
    0.424869358540D-05 0.138231806923D-01 0.102426856756D-04 0.515358324432D+04
    0.259200000000D+06 0.502914190292D-07-0.362204634797D+00-0.121071934700D-06
    0.962033548947D+00 0.180656250000D+03 0.836782944420D+00-0.751638451616D-08
   -0.173935816554D-09 0.100000000000D+01 0.231900000000D+04 0.000000000000D+00
    0.200000000000D+01 0.000000000000D+00-0.102445483208D-07 0.200000000000D+02
    0.252018000000D+06 0.400000000000D+01 0.000000000000D+00 0.000000000000D+00
17 24  6 19  0  0  0.0 0.692470464855D-03-0.579802872380D-11 0.000000000000D+00
    0.870000000000D+02 0.827812500000D+02 0.413695803519D-08 0.219996683087D+01
    0.426359474659D-05 0.134078552946D-01 0.246986746788D-05 0.515375010109D+04
    0.259200000000D+06 0.214204192162D-06 0.658468515125D+00 0.428408384323D-07
    0.968788023121D+00 0.332062500000D+03-0.131747616238D+01-0.789640034534D-08
    0.176078762959D-09 0.100000000000D+01 0.231900000000D+04 0.000000000000D+00
    0.200000000000D+01 0.000000000000D+00-0.111758708954D-07 0.870000000000D+02
    0.252018000000D+06 0.400000000000D+01 0.000000000000D+00 0.000000000000D+00
